{
  "type": "FeatureCollection",
  "features": [
    {
      "type": "Feature",
      "properties": { "name": "Ethiopia" },
      "geometry": {
        "type": "Polygon",
        "coordinates": [[[33.0,3.5],[35.0,4.6],[37.1,3.4],[40.0,3.9],[42.0,4.4],[44.9,8.0],[47.8,8.0],[45.2,11.1],[42.5,12.6],[40.8,14.5],[37.9,14.9],[36.2,12.8],[34.1,10.8],[33.0,8.1],[33.0,3.5]]]
      }
    },
    {
      "type": "Feature",
      "properties": { "name": "Eritrea" },
      "geometry": {
        "type": "Polygon",
        "coordinates": [[[36.5,12.5],[38.1,14.9],[40.8,14.5],[43.1,12.7],[42.2,12.1],[39.2,13.3],[36.5,12.5]]]
      }
    },
    {
      "type": "Feature",
      "properties": { "name": "Djibouti" },
      "geometry": {
        "type": "Polygon",
        "coordinates": [[[41.7,10.9],[43.2,11.9],[43.5,12.7],[42.5,12.6],[41.7,10.9]]]
      }
    },
    {
      "type": "Feature",
      "properties": { "name": "Somalia" },
      "geometry": {
        "type": "Polygon",
        "coordinates": [[[40.0,3.9],[42.0,4.4],[44.9,8.0],[47.8,8.0],[51.3,11.8],[51.0,5.0],[47.0,1.7],[42.0,-0.5],[40.0,3.9]]]
      }
    },
    {
      "type": "Feature",
      "properties": { "name": "Kenya" },
      "geometry": {
        "type": "Polygon",
        "coordinates": [[[34.0,-4.5],[41.9,-1.5],[42.0,4.4],[40.0,3.9],[37.1,3.4],[35.0,4.6],[33.9,0.0],[34.0,-4.5]]]
      }
    },
    {
      "type": "Feature",
      "properties": { "name": "Sudan and South Sudan context" },
      "geometry": {
        "type": "Polygon",
        "coordinates": [[[24.0,3.5],[33.0,3.5],[33.0,8.1],[34.1,10.8],[36.2,12.8],[36.8,22.0],[24.0,22.0],[24.0,3.5]]]
      }
    }
  ]
}
